[
    {
        "Altitude(m)": 617719.782648983,
        "Argument of Periapsis(deg)": 0.0,
        "Eccentricity": 0.0,
        "Inclination(deg)": 60.0,
        "Latitude(deg)": -41.10267179573447,
        "Longitude(deg)": -34.9052992518619,
        "Mean Anomaly(deg)": -130.9091,
        "RAAN(deg)": 215.0,
        "Satellite Name": "Test1 960",
        "Satellite Number": 960,
        "Semi-Major Axis(m)": 6980739.136638005,
        "Time(s)": 0
    },
    {
        "Altitude(m)": 617911.3183761962,
        "Argument of Periapsis(deg)": 0.00010418945913296404,
        "Eccentricity": 0.0,
        "Inclination(deg)": 60.0,
        "Latitude(deg)": -41.565863221258326,
        "Longitude(deg)": -34.40089157685247,
        "Mean Anomaly(deg)": -130.28899385453815,
        "RAAN(deg)": 214.99957995086024,
        "Satellite Name": "Test1 960",
        "Satellite Number": 960,
        "Semi-Major Axis(m)": 6980739.136638005,
        "Time(s)": 10
    }
]